STARLINK-1542           
1 46073U 20055AY  22049.87496110  .00000354  00000+0  42652-4 0  9999
2 46073  53.0545 259.7742 0001425  68.5658 291.5483 15.06401363 86263
STARLINK-1549           
1 46074U 20055AZ  22049.86021518  .00000868  00000+0  77127-4 0  9990
2 46074  53.0522 259.8282 0001925  56.5294 303.5879 15.06412753 86254
STARLINK-1551           
1 46075U 20055BA  22049.88603330  .00000120  00000+0  26984-4 0  9997
2 46075  53.0531 259.7158 0001566  71.6732 288.4427 15.06391373 86267
STARLINK-1552           
1 46076U 20055BB  22049.84547888  .00001734  00000+0  13530-3 0  9993
2 46076  53.0537 259.9048 0001807  62.8973 297.2200 15.06398254 86241
STARLINK-1559           
1 46077U 20055BC  22049.89339624 -.00000284  00000+0 -16682-6 0  9991
2 46077  53.0533 259.6712 0001755  65.8395 294.2777 15.06397756 86226
STARLINK-1563           
1 46078U 20055BD  22049.80492823  .00000958  00000+0  83198-4 0  9994
2 46078  53.0529 260.0899 0001555  65.5233 294.5918 15.06404580 86224
STARLINK-1566           
1 46079U 20055BE  22049.79756150  .00000459  00000+0  49711-4 0  9998
2 46079  53.0536 260.1127 0001568  73.0444 287.0717 15.06395722 86254
STARLINK-1568           
1 46080U 20055BF  22049.88971186 -.00000027  00000+0  17074-4 0  9997
2 46080  53.0527 259.6955 0001360  73.1429 286.9709 15.06398538 86248
STARLINK-1571           
1 46081U 20055BG  22049.85654606  .00004981  00000+0  35302-3 0  9995
2 46081  53.0518 259.8455 0001546  85.2396 274.8769 15.06401362 86252
STARLINK-1578           
1 46082U 20055BH  22049.81230385  .00000357  00000+0  42857-4 0  9993
2 46082  53.0533 260.0375 0001573  68.0509 292.0647 15.06395084 86250
STARLINK-1579           
1 46083U 20055BJ  22049.84915783  .00004322  00000+0  30879-3 0  9995
2 46083  53.0518 259.8739 0001570  73.5010 286.6151 15.06411867 86256
GLOBAL-7                
1 46088U 20055BP  22049.37121235  .00021343  00000+0  28100-3 0  9995
2 46088  53.0045  94.2048 0003436  73.9036 286.2353 15.58423026 91832
GLOBAL-8                
1 46089U 20055BQ  22048.50214965  .00002099  00000+0  34644-4 0  9991
2 46089  53.0036 100.9302 0009888  17.7124 342.4229 15.57570000 91664
BSAT-4B                 
1 46112U 20056A   22049.33347635 -.00000348  00000+0  00000+0 0  9992
2 46112   0.0230 152.3089 0001146 288.7372 297.1020  1.00272571  5548
MEV-2                   
1 46113U 20056B   22049.31141014 -.00000009  00000+0  00000+0 0  9998
2 46113   0.0597 276.5053 0000898  64.2370 278.6055  1.00271156 64706
GALAXY 30 (G-30)        
1 46114U 20056C   22049.71737420  .00000040  00000+0  00000+0 0  9999
2 46114   0.0237 133.5445 0001864 211.0166 297.3439  1.00269386  5457
STARLINK-1585           
1 46117U 20057A   22049.61693941 -.00002138  00000+0 -12463-3 0  9993
2 46117  53.0521 100.9278 0001711  57.6371 302.4783 15.06404122 83264
STARLINK-1588           
1 46118U 20057B   22049.89152930 -.00000471  00000+0 -12717-4 0  9993
2 46118  53.0538 119.6889 0001368  65.1020 295.0111 15.06406359 84303
STARLINK-1593           
1 46119U 20057C   22049.88048909 -.00000353  00000+0 -48233-5 0  9995
2 46119  53.0550 119.7518 0001468  63.5807 296.5333 15.06401019 84281
STARLINK-1601           
1 46120U 20057D   22049.60035069  .00005089  00000+0  36019-3 0  9996
2 46120  53.0545 121.0036 0001445  66.8688 293.2453 15.06411164 84263
STARLINK-1602           
1 46121U 20057E   22049.50267226  .00001605  00000+0  12662-3 0  9996
2 46121  53.0547 101.4418 0001345  56.7768 303.3349 15.06403975 83243
STARLINK-1604           
1 46122U 20057F   22049.44554354  .00001093  00000+0  92268-4 0  9993
2 46122  53.0541  81.6838 0001437  64.4831 295.6306 15.06403813 84778
STARLINK-1605           
1 46123U 20057G   22049.36446012 -.00000585  00000+0 -20372-4 0  9990
2 46123  53.0549  82.0570 0001731  58.1180 301.9978 15.06395480 84786
STARLINK-1614           
1 46124U 20057H   22049.43816312 -.00000158  00000+0  82955-5 0  9994
2 46124  53.0543  81.7377 0001601  72.9063 287.2101 15.06405319 83520
STARLINK-1618           
1 46125U 20057J   22049.88417347  .00001488  00000+0  11875-3 0  9996
2 46125  53.0543 119.7125 0001699  65.7293 294.3874 15.06412202 84285
STARLINK-1619           
1 46126U 20057K   22049.59298716  .00000535  00000+0  54815-4 0  9996
2 46126  53.0586 121.0252 0001415  81.9656 278.1494 15.06399681 82987
STARLINK-1621           
1 46127U 20057L   22049.65011708  .00002722  00000+0  20152-3 0  9994
2 46127  53.0530 100.7731 0001394  65.0125 295.1008 15.06404207 83266
STARLINK-1622           
1 46128U 20057M   22049.47872027  .00001629  00000+0  12825-3 0  9997
2 46128  53.0542  81.5547 0001583  66.2592 293.8563 15.06398820 83525
STARLINK-1623           
1 46129U 20057N   22049.58559361 -.00004488  00000+0 -28259-3 0  9999
2 46129  53.0538  81.0737 0001487  58.5407 301.5727 15.06398891 83548
STARLINK-1624           
1 46130U 20057P   22049.55245780  .00006442  00000+0  45088-3 0  9994
2 46130  53.0530  81.2096 0001503  63.9293 296.1850 15.06406890 84786
STARLINK-1625           
1 46131U 20057Q   22049.56534313  .00000106  00000+0  26025-4 0  9991
2 46131  53.0540 101.1664 0001249  67.1434 292.9687 15.06399113 84513
STARLINK-1630           
1 46132U 20057R   22049.60404484  .00003011  00000+0  22092-3 0  9999
2 46132  53.0540 120.9875 0001573  57.9303 302.1839 15.06403010 84244
STARLINK-1637           
1 46133U 20057S   22049.60405229  .00007248  00000+0  50490-3 0  9997
2 46133  53.0518  80.9712 0001903  55.0881 305.0286 15.06404104 84795
STARLINK-1638           
1 46134U 20057T   22049.47503670  .00001323  00000+0  10769-3 0  9995
2 46134  53.0533  81.5544 0001376  69.5664 290.5473 15.06403178 83522
STARLINK-1639           
1 46135U 20057U   22049.55611721 -.00001363  00000+0 -72614-4 0  9996
2 46135  53.0530  81.1935 0001629  63.8074 296.3082 15.06405728 83537
STARLINK-1643           
1 46136U 20057V   22049.87035261  .00001719  00000+0  13429-3 0  9992
2 46136  53.0535 109.7845 0001252  55.8081 304.3027 15.06399969 83168
STARLINK-1586           
1 46137U 20057W   22049.55796485  .00003768  00000+0  27165-3 0  9998
2 46137  53.0547 101.1807 0001565  64.8592 295.2559 15.06412251 83911
STARLINK-1590           
1 46138U 20057X   22049.88786158  .00000057  00000+0  22760-4 0  9996
2 46138  53.0546 119.7039 0001580  54.4437 305.6699 15.06394860 83021
STARLINK-1594           
1 46140U 20057Z   22049.58193292  .00000065  00000+0  23250-4 0  9991
2 46140  53.0539  81.0775 0001815  46.3642 313.7497 15.06391463 84802
STARLINK-1596           
1 46141U 20057AA  22049.55980656  .00002576  00000+0  19175-3 0  9996
2 46141  53.0529  81.1770 0001568  62.5086 297.6062 15.06409301 83533
STARLINK-1597           
1 46142U 20057AB  22049.90996636 -.00001125  00000+0 -56661-4 0  9994
2 46142  53.0530 119.6139 0001204  61.2288 298.8822 15.06396244 83021
STARLINK-1606           
1 46144U 20057AD  22049.87495525  .00007313  00000+0  50907-3 0  9992
2 46144  53.0533  99.7706 0001558  58.6286 301.4855 15.06419928 71551
STARLINK-1608           
1 46146U 20057AF  22049.52295367  .00002457  00000+0  18372-3 0  9992
2 46146  53.0523 121.3397 0001530  63.2771 296.8374 15.06408520 82978
STARLINK-1611           
1 46147U 20057AG  22049.90260587  .00002033  00000+0  15536-3 0  9990
2 46147  53.0539 119.6330 0001784  46.0659 314.0477 15.06396790 84286
STARLINK-1616           
1 46148U 20057AH  22049.64273782 -.00000374  00000+0 -62020-5 0  9993
2 46148  53.0558 100.7977 0001486  63.9201 296.1941 15.06396646 83269
STARLINK-1620           
1 46149U 20057AJ  22049.45844873  .00005635  00000+0  39678-3 0  9992
2 46149  53.0533 101.6414 0001464  73.9362 286.1788 15.06407184 84511
STARLINK-1629           
1 46150U 20057AK  22049.71829664 -.00001162  00000+0 -59117-4 0  9998
2 46150  53.0526 120.4618 0001767  64.2104 295.9067 15.06408891 83000
STARLINK-1631           
1 46151U 20057AL  22049.62800716  .00002397  00000+0  17977-3 0  9992
2 46151  53.0528 100.8729 0001557  69.4406 290.6750 15.06399589 83269
STARLINK-1634           
1 46152U 20057AM  22049.61141575  .00003537  00000+0  25628-3 0  9992
2 46152  53.0546 120.9503 0001377  65.6764 294.4369 15.06394082 82987
STARLINK-1636           
1 46153U 20057AN  22049.64643775  .00001524  00000+0  12121-3 0  9993
2 46153  53.0549 100.7997 0001485  66.2524 293.8620 15.06390518 83260
STARLINK-1642           
1 46154U 20057AP  22049.65656829  .00001320  00000+0  10750-3 0  9999
2 46154  53.0539 110.7538 0001593  69.5813 290.5347 15.06403338 83130
STARLINK-1667           
1 46155U 20057AQ  22049.54875627  .00002021  00000+0  15458-3 0  9996
2 46155  53.0526  81.2191 0001601  66.5683 293.5474 15.06396615 84770
STARLINK-1545           
1 46156U 20057AR  22049.87126792  .00005870  00000+0  41244-3 0  9992
2 46156  53.0518  99.7730 0001641  65.0251 295.0909 15.06417266 84556
STARLINK-1587           
1 46157U 20057AS  22049.59298648  .00002350  00000+0  17650-3 0  9996
2 46157  53.0538  81.0276 0001825  44.9948 315.1189 15.06420198 83541
STARLINK-1589           
1 46158U 20057AT  22049.58928816  .00000960  00000+0  83293-4 0  9995
2 46158  53.0535  81.0510 0001443  65.3751 294.7389 15.06404867 84804
STARLINK-1595           
1 46159U 20057AU  22049.89521845  .00003316  00000+0  24131-3 0  9994
2 46159  53.0536 119.6795 0001367  66.3861 293.7272 15.06412377 84284
STARLINK-1598           
1 46160U 20057AV  22049.62062129  .00002954  00000+0  21710-3 0  9999
2 46160  53.0533 100.9027 0001868  49.8253 310.2900 15.06411160 84519
STARLINK-1600           
1 46161U 20057AW  22049.86390563  .00000529  00000+0  54392-4 0  9991
2 46161  53.0532  99.8088 0001376  74.7844 285.3297 15.06400409 84558
STARLINK-1603           
1 46162U 20057AX  22049.86758539 -.00002292  00000+0 -13505-3 0  9994
2 46162  53.0547  99.7917 0001533  64.4846 295.6301 15.06398934 84568
